GLOBALSTAR M045         
1 25676U 99019A   25151.79978546 -.00000061  00000+0  28421-3 0  9990
2 25676  51.9990 351.9774 0000971 114.7723 258.2224 12.27063154191387
GLOBALSTAR M019         
1 25677U 99019B   25151.65778675 -.00000015  00000+0  78080-3 0  9992
2 25677  51.9861 121.5819 0001369 300.6727 230.4328 12.13877053183135
GLOBALSTAR M044         
1 25678U 99019C   25151.49488147 -.00000034  00000+0  69765-3 0  9998
2 25678  51.9980  71.3079 0006663  11.3794 160.1306 11.90250951169337
GLOBALSTAR M042         
1 25679U 99019D   25151.56662816 -.00000101  00000+0 -86838-4 0  9991
2 25679  52.0006  97.8720 0002690 273.5219 257.3053 12.22083180183298
GLOBALSTAR M025         
1 25770U 99031A   25151.85927944 -.00000067  00000+0  10897-4 0  9997
2 25770  51.9785 197.0974 0001670 136.4906  34.6249 11.22558324479874
GLOBALSTAR M049         
1 25771U 99031B   25151.90057447 -.00000060  00000+0  19638-3 0  9990
2 25771  51.9866 230.9474 0002291 338.5439  21.5261 11.12116088115617
